FENGYUN 1C DEB          
1 31710U 99025CDH 17343.14595750  .00005225  00000-0  31289-3 0  9991
2 31710  98.9711  97.4814 0100934 136.4896 224.4347 15.07342114568559
